{"fetched_at":"2026-07-23T17:55:11.690Z","source":"https://celestrak.org/NORAD/elements/gp.php?GROUP=qianfan&FORMAT=JSON","constellation":"qianfan","records":[{"OBJECT_NAME":"QIANFAN-177","OBJECT_ID":"2026-124N","EPOCH":"2026-07-22T21:27:37.867392","CLASSIFICATION_TYPE":"U","MEAN_MOTION":13.8641538,"ECCENTRICITY":0.00216127,"INCLINATION":89.0005,"RA_OF_ASC_NODE":358.0063,"ARG_OF_PERICENTER":21.8279,"MEAN_ANOMALY":338.3808,"EPHEMERIS_TYPE":0,"NORAD_CAT_ID":69394,"ELEMENT_SET_NO":999,"REV_AT_EPOCH":685,"BSTAR":0.000035158307,"MEAN_MOTION_DOT":5.4e-7,"MEAN_MOTION_DDOT":0},{"OBJECT_NAME":"QIANFAN-178","OBJECT_ID":"2026-124P","EPOCH":"2026-07-22T22:41:13.068096","CLASSIFICATION_TYPE":"U","MEAN_MOTION":13.89359117,"ECCENTRICITY":0.0008806,"INCLINATION":88.999,"RA_OF_ASC_NODE":358.0218,"ARG_OF_PERICENTER":55.865,"MEAN_ANOMALY":304.3357,"EPHEMERIS_TYPE":0,"NORAD_CAT_ID":69395,"ELEMENT_SET_NO":999,"REV_AT_EPOCH":686,"BSTAR":0.000033525011,"MEAN_MOTION_DOT":5.4e-7,"MEAN_MOTION_DDOT":0},{"OBJECT_NAME":"QIANFAN-179","OBJECT_ID":"2026-124Q","EPOCH":"2026-07-22T13:42:50.354496","CLASSIFICATION_TYPE":"U","MEAN_MOTION":13.90248074,"ECCENTRICITY":0.00075301,"INCLINATION":89.0007,"RA_OF_ASC_NODE":358.0569,"ARG_OF_PERICENTER":56.3675,"MEAN_ANOMALY":303.8216,"EPHEMERIS_TYPE":0,"NORAD_CAT_ID":69396,"ELEMENT_SET_NO":999,"REV_AT_EPOCH":681,"BSTAR":0.000029599089,"MEAN_MOTION_DOT":5e-7,"MEAN_MOTION_DDOT":0},{"OBJECT_NAME":"QIANFAN-180","OBJECT_ID":"2026-124R","EPOCH":"2026-07-22T12:16:58.541952","CLASSIFICATION_TYPE":"U","MEAN_MOTION":13.84633475,"ECCENTRICITY":0.00092284,"INCLINATION":89,"RA_OF_ASC_NODE":358.0666,"ARG_OF_PERICENTER":64.4802,"MEAN_ANOMALY":295.7322,"EPHEMERIS_TYPE":0,"NORAD_CAT_ID":69397,"ELEMENT_SET_NO":999,"REV_AT_EPOCH":680,"BSTAR":-1.8603007,"MEAN_MOTION_DOT":-0.01952694,"MEAN_MOTION_DDOT":0},{"OBJECT_NAME":"QIANFAN-181","OBJECT_ID":"2026-124S","EPOCH":"2026-07-22T10:42:02.512224","CLASSIFICATION_TYPE":"U","MEAN_MOTION":13.7519593,"ECCENTRICITY":0.00012925,"INCLINATION":89.0004,"RA_OF_ASC_NODE":358.1292,"ARG_OF_PERICENTER":144.1927,"MEAN_ANOMALY":215.9325,"EPHEMERIS_TYPE":0,"NORAD_CAT_ID":69398,"ELEMENT_SET_NO":999,"REV_AT_EPOCH":676,"BSTAR":-2.268338,"MEAN_MOTION_DOT":-0.0202668,"MEAN_MOTION_DDOT":0},{"OBJECT_NAME":"QIANFAN-182","OBJECT_ID":"2026-124T","EPOCH":"2026-07-22T09:17:41.132832","CLASSIFICATION_TYPE":"U","MEAN_MOTION":13.79285171,"ECCENTRICITY":0.0009332,"INCLINATION":89,"RA_OF_ASC_NODE":358.1214,"ARG_OF_PERICENTER":54.9747,"MEAN_ANOMALY":305.2295,"EPHEMERIS_TYPE":0,"NORAD_CAT_ID":69399,"ELEMENT_SET_NO":999,"REV_AT_EPOCH":675,"BSTAR":-0.000028581991,"MEAN_MOTION_DOT":-1.6e-7,"MEAN_MOTION_DDOT":0},{"OBJECT_NAME":"QIANFAN-183","OBJECT_ID":"2026-125A","EPOCH":"2026-07-22T21:15:20.798496","CLASSIFICATION_TYPE":"U","MEAN_MOTION":13.81378045,"ECCENTRICITY":0.0024224,"INCLINATION":88.9925,"RA_OF_ASC_NODE":276.4657,"ARG_OF_PERICENTER":62.0495,"MEAN_ANOMALY":298.3121,"EPHEMERIS_TYPE":0,"NORAD_CAT_ID":69401,"ELEMENT_SET_NO":999,"REV_AT_EPOCH":672,"BSTAR":-1.9342428,"MEAN_MOTION_DOT":-0.01926935,"MEAN_MOTION_DDOT":0},{"OBJECT_NAME":"QIANFAN-184","OBJECT_ID":"2026-125B","EPOCH":"2026-07-22T21:20:42.198720","CLASSIFICATION_TYPE":"U","MEAN_MOTION":13.7811457,"ECCENTRICITY":0.00198974,"INCLINATION":88.9937,"RA_OF_ASC_NODE":276.4672,"ARG_OF_PERICENTER":54.9112,"MEAN_ANOMALY":305.3916,"EPHEMERIS_TYPE":0,"NORAD_CAT_ID":69402,"ELEMENT_SET_NO":999,"REV_AT_EPOCH":672,"BSTAR":-2.0081602,"MEAN_MOTION_DOT":-0.01874746,"MEAN_MOTION_DDOT":0},{"OBJECT_NAME":"QIANFAN-185","OBJECT_ID":"2026-125C","EPOCH":"2026-07-23T02:28:36.854112","CLASSIFICATION_TYPE":"U","MEAN_MOTION":13.97427283,"ECCENTRICITY":0.00186111,"INCLINATION":88.9943,"RA_OF_ASC_NODE":276.4237,"ARG_OF_PERICENTER":61.1707,"MEAN_ANOMALY":299.1336,"EPHEMERIS_TYPE":0,"NORAD_CAT_ID":69403,"ELEMENT_SET_NO":999,"REV_AT_EPOCH":676,"BSTAR":-0.000006033965,"MEAN_MOTION_DOT":5e-8,"MEAN_MOTION_DDOT":0},{"OBJECT_NAME":"QIANFAN-186","OBJECT_ID":"2026-125D","EPOCH":"2026-07-22T21:00:35.936352","CLASSIFICATION_TYPE":"U","MEAN_MOTION":13.78712938,"ECCENTRICITY":0.00216452,"INCLINATION":88.9941,"RA_OF_ASC_NODE":276.4649,"ARG_OF_PERICENTER":54.6756,"MEAN_ANOMALY":305.6431,"EPHEMERIS_TYPE":0,"NORAD_CAT_ID":69404,"ELEMENT_SET_NO":999,"REV_AT_EPOCH":672,"BSTAR":-1.8963996,"MEAN_MOTION_DOT":-0.01794447,"MEAN_MOTION_DDOT":0},{"OBJECT_NAME":"QIANFAN-187","OBJECT_ID":"2026-125E","EPOCH":"2026-07-22T20:11:21.899616","CLASSIFICATION_TYPE":"U","MEAN_MOTION":13.83861807,"ECCENTRICITY":0.00203422,"INCLINATION":88.9938,"RA_OF_ASC_NODE":276.4581,"ARG_OF_PERICENTER":72.8739,"MEAN_ANOMALY":287.4656,"EPHEMERIS_TYPE":0,"NORAD_CAT_ID":69405,"ELEMENT_SET_NO":999,"REV_AT_EPOCH":672,"BSTAR":-1.5573862,"MEAN_MOTION_DOT":-0.01618249,"MEAN_MOTION_DDOT":0},{"OBJECT_NAME":"QIANFAN-188","OBJECT_ID":"2026-125F","EPOCH":"2026-07-22T15:48:50.256000","CLASSIFICATION_TYPE":"U","MEAN_MOTION":13.84487842,"ECCENTRICITY":0.00225491,"INCLINATION":88.9932,"RA_OF_ASC_NODE":276.468,"ARG_OF_PERICENTER":64.3983,"MEAN_ANOMALY":295.9514,"EPHEMERIS_TYPE":0,"NORAD_CAT_ID":69406,"ELEMENT_SET_NO":999,"REV_AT_EPOCH":670,"BSTAR":-2.0045071,"MEAN_MOTION_DOT":-0.02092189,"MEAN_MOTION_DDOT":0},{"OBJECT_NAME":"QIANFAN-189","OBJECT_ID":"2026-125G","EPOCH":"2026-07-22T21:28:22.090368","CLASSIFICATION_TYPE":"U","MEAN_MOTION":13.8099564,"ECCENTRICITY":0.00250437,"INCLINATION":88.993,"RA_OF_ASC_NODE":276.4481,"ARG_OF_PERICENTER":63.3392,"MEAN_ANOMALY":297.0336,"EPHEMERIS_TYPE":0,"NORAD_CAT_ID":69407,"ELEMENT_SET_NO":999,"REV_AT_EPOCH":672,"BSTAR":-1.8907002,"MEAN_MOTION_DOT":-0.01855398,"MEAN_MOTION_DDOT":0},{"OBJECT_NAME":"QIANFAN-190","OBJECT_ID":"2026-125H","EPOCH":"2026-07-22T21:11:32.967744","CLASSIFICATION_TYPE":"U","MEAN_MOTION":13.82418575,"ECCENTRICITY":0.00254353,"INCLINATION":88.9931,"RA_OF_ASC_NODE":276.4469,"ARG_OF_PERICENTER":62.3437,"MEAN_ANOMALY":298.0309,"EPHEMERIS_TYPE":0,"NORAD_CAT_ID":69408,"ELEMENT_SET_NO":999,"REV_AT_EPOCH":673,"BSTAR":-1.8862185,"MEAN_MOTION_DOT":-0.01913688,"MEAN_MOTION_DDOT":0},{"OBJECT_NAME":"QIANFAN-191","OBJECT_ID":"2026-125J","EPOCH":"2026-07-22T20:59:25.511712","CLASSIFICATION_TYPE":"U","MEAN_MOTION":13.79497089,"ECCENTRICITY":0.00232099,"INCLINATION":88.9936,"RA_OF_ASC_NODE":276.4452,"ARG_OF_PERICENTER":60.2758,"MEAN_ANOMALY":300.0715,"EPHEMERIS_TYPE":0,"NORAD_CAT_ID":69409,"ELEMENT_SET_NO":999,"REV_AT_EPOCH":673,"BSTAR":-2.0799796,"MEAN_MOTION_DOT":-0.02002119,"MEAN_MOTION_DDOT":0},{"OBJECT_NAME":"QIANFAN-192","OBJECT_ID":"2026-125K","EPOCH":"2026-07-22T20:38:49.213248","CLASSIFICATION_TYPE":"U","MEAN_MOTION":13.80797969,"ECCENTRICITY":0.00264944,"INCLINATION":88.9938,"RA_OF_ASC_NODE":276.4438,"ARG_OF_PERICENTER":54.182,"MEAN_ANOMALY":306.1805,"EPHEMERIS_TYPE":0,"NORAD_CAT_ID":69410,"ELEMENT_SET_NO":999,"REV_AT_EPOCH":673,"BSTAR":-2.0578261,"MEAN_MOTION_DOT":-0.02024253,"MEAN_MOTION_DDOT":0}]}
